STARLINK-1008           
1 44714U 19074B   26060.48128596  .00003221  00000+0  11786-3 0  9991
2 44714  53.1576 216.9338 0001265  78.3574 281.7569 15.31035105347612
STARLINK-1012           
1 44718U 19074F   26060.39188223  .00000537  00000+0  30255-4 0  9998
2 44718  53.1597 217.3485 0001342  86.6275 273.4880 15.30193933347597
STARLINK-1017           
1 44723U 19074L   26060.40983546  .00051099  00000+0  21313-2 0  9999
2 44723  53.0527 209.6358 0001975 130.3912 229.7257 15.23206140347707
STARLINK-1019           
1 44724U 19074M   26060.58335647  .00105806  00000+0  58111-3 0  9995
2 44724  53.0434 177.4030 0003521 172.0959 201.3531 15.78968962  6011
STARLINK-1020           
1 44725U 19074N   26060.58335647  .00002529  00000+0  97533-4 0  9996
2 44725  53.1591 241.5004 0001266  86.6413 347.7101 15.30187784  5773
STARLINK-1031           
1 44736U 19074Z   26060.58335647  .00187244  00000+0  69706-3 0  9996
2 44736  53.0411 161.2622 0003266 321.0256  20.8998 15.86982029  6031
STARLINK-1036           
1 44741U 19074AE  26060.44988698  .00121425  00000+0  18277-2 0  9992
2 44741  53.0506 228.3816 0003320 198.8285 161.2603 15.53945748347442
STARLINK-1039           
1 44744U 19074AH  26059.81136274  .00045733  00000+0  20554-2 0  9997
2 44744  53.0460 255.8774 0005553 144.6755 215.4609 15.20703417347002
STARLINK-1042           
1 44747U 19074AL  26060.46228862  .00026688  00000+0  48583-3 0  9999
2 44747  53.0443 134.2543 0002034 110.2607 249.8619 15.49331741348793
STARLINK-1043           
1 44748U 19074AM  26060.48663788  .00035290  00000+0  56073-3 0  9994
2 44748  53.0516 234.0572 0002465  93.2774 266.8518 15.53014555347375
STARLINK-1046           
1 44751U 19074AQ  26060.51505534  .00035017  00000+0  79151-3 0  9995
2 44751  53.0531 249.6759 0006777 149.8605 210.2791 15.42846904347157
STARLINK-1047           
1 44752U 19074AR  26060.34415377  .00014007  00000+0  45296-3 0  9991
2 44752  53.0693 184.9864 0003158 174.2369 185.8668 15.32353343348064
STARLINK-1048           
1 44753U 19074AS  26060.41042082  .00102133  00000+0  16794-2 0  9997
2 44753  53.0516 208.7225 0002745 155.3826 204.7314 15.51582720347718
STARLINK-1053           
1 44758U 19074AX  26060.58335647  .00302823  00000+0  10777-2 0  9995
2 44758  53.0291 124.7228 0007257  23.6898  63.9630 15.87573232  5996
STARLINK-1063           
1 44768U 19074BH  26060.52263901 -.00616749  00000+0 -22864-1 0  9999
2 44768  53.1570 257.3310 0002263  33.6122 326.5022 15.29404838347067
STARLINK-1067           
1 44771U 19074BL  26060.47577458  .00123825  00000+0  17597-2 0  9996
2 44771  53.0508 243.9775 0001047 311.1171  48.9748 15.55510828347239
STARLINK-1068           
1 44772U 19074BM  26060.58335647  .00093267  00000+0  10665-2 0  9996
2 44772  53.0488 219.5259 0002924 201.0355 270.3337 15.61416339  5920
STARLINK-1112           
1 44925U 20001M   26060.45995633  .00583492  16954-3  91687-3 0  9998
2 44925  53.0351 283.8135 0003380 236.5883 123.4825 16.03374398340008
STARLINK-1114           
1 44927U 20001P   26060.35809932  .00088759  00000+0  16245-2 0  9998
2 44927  53.0509   9.3074 0008481  85.3765 274.8211 15.48586198338800
STARLINK-1123           
1 44930U 20001S   26060.58335647  .01775277  00000+0  70822-1 0  9993
2 44930  53.1211  22.5808 0001264  80.7930 267.5893 15.21607097  5834
STARLINK-1094           
1 44941U 20001AD  26060.06192325 -.00001571  00000+0 -40907-4 0  9996
2 44941  53.1623 359.6368 0001313 102.6889 257.4259 15.30205396338918
STARLINK-1122           
1 44949U 20001AM  26060.21889440  .00001522  00000+0  63511-4 0  9992
2 44949  53.1617 358.9537 0001377  89.2895 270.8264 15.30201781338937
STARLINK-1080           
1 44961U 20001AZ  26060.14977530  .00090301  00000+0  18332-2 0  9998
2 44961  53.0539 328.9494 0008565  88.3552 271.8435 15.45579210339357
STARLINK-1090           
1 44968U 20001BG  26060.20148070  .00003444  00000+0  24997-3 0  9998
2 44968  53.0547 344.7236 0001598 100.6289 259.4880 15.06403925339135
STARLINK-1132           
1 45044U 20006A   26060.04350773  .00074573  00000+0  16815-2 0  9996
2 45044  53.1578 294.9157 0005143 154.7945 205.3313 15.42590800335599
STARLINK-1131           
1 45047U 20006D   26060.10978008  .00029801  00000+0  10160-2 0  9994
2 45047  53.1603 320.8334 0002437  95.1159 265.0120 15.30142175335230
STARLINK-1134           
1 45048U 20006E   26060.01253088  .00022375  00000+0  51846-3 0  9995
2 45048  53.0332 279.5371 0010016 141.5600 218.6120 15.42325725335803
STARLINK-1156           
1 45054U 20006L   26060.13608158  .00001138  00000+0  50541-4 0  9993
2 45054  53.1608 320.7256 0001287  92.6906 267.4243 15.30198983335239
STARLINK-1159           
1 45057U 20006P   26060.58335647  .00169596  00000+0  90840-3 0  9993
2 45057  53.0456 275.4829 0005038 121.7152 143.2082 15.79298248  6021
STARLINK-1166           
1 45060U 20006S   26060.48880537  .00038448  00000+0  83538-3 0  9996
2 45060  53.0541 311.7178 0006016 113.6446 246.5191 15.43982510335390
